UNKNOWN                 
1 85159U          22206.17495664  .00003205  00000+0  16001-2 0  9991
2 85159  98.8370 110.8986 0076590 172.4004 187.8350 14.16018310323716
UNKNOWN                 
1 85175U          22207.70924860  .00004891  00000+0  91630-3 0  9998
2 85175 101.3634 192.3875 0125832 219.4560 139.7414 14.60558530443725
UNKNOWN                 
1 85205U          22208.60073213  .00000074  00000+0  59335-4 0  9995
2 85205  82.9577 150.9100 0037471 138.7271 341.6773 13.76487465436563
UNKNOWN                 
1 85210U 75052    22208.53404686  .00000952  00000+0  97696-3 0  9990
2 85210  99.7835 309.2861 0225212 234.0814 133.8022 13.68535342433171
UNKNOWN                 
1 85217U          22208.28041619  .00000779  00000+0  25362-3 0  9991
2 85217  97.9274  24.5751 0237353 227.3577 130.7383 14.26544771451289
UNKNOWN                 
1 85220U          22208.48565420  .00003346  00000+0  89605-3 0  9991
2 85220  99.4124  42.4541 0165944 330.8552  28.3449 14.41177147453664
UNKNOWN                 
1 85237U          22206.12829198  .00000773  00000+0  20156-3 0  9990
2 85237  65.5410 164.3171 0604628 223.1027 132.1174 13.81274574436479
UNKNOWN                 
1 85238U          22207.72609093 -.00000009  00000+0  27251-4 0  9995
2 85238  98.9186 164.8086 0062799 306.5603 172.9146 13.87983266439490
UNKNOWN                 
1 85246U          22208.23522303  .00000315  00000+0  13825-3 0  9999
2 85246  98.0871 309.6517 0237285 322.8741  35.6223 14.15954163448056
UNKNOWN                 
1 85266U          22208.32236735  .00001006  00000+0  98130-3 0  9992
2 85266  62.7633 173.3186 3591512 168.3229 203.0716  7.78392755244521
UNKNOWN                 
1 85283U 78098    22205.14671053  .00007603  00000+0  15878-2 0  9992
2 85283  99.6934 273.8249 0027162 261.3484  98.4634 14.59992657360852
UNKNOWN                 
1 85292U          22200.71420175  .00008944  00000+0  21401-2 0  9993
2 85292  65.8328 348.4650 0064041 252.2342 107.1765 14.52723676  6483
UNKNOWN                 
1 85370U          22205.59095119  .00000596  00000+0  58041-3 0  9993
2 85370  99.9693 328.3187 0008801  37.1173  31.0461 13.84055849437715
UNKNOWN                 
1 85373U          22208.56542756  .00001535  00000+0  12347-2 0  9992
2 85373 100.4214  71.0483 0053322 222.5754 167.5016 13.91810440440022
UNKNOWN                 
1 85383U          22207.70730115  .00003136  00000+0  84830-3 0  9992
2 85383  98.6486 303.0690 0104903 124.4487 236.6670 14.45263142406910
UNKNOWN                 
1 85386U          22208.54038288  .00002562  00000+0  63908-3 0  9995
2 85386  98.6434 317.5920 0109989  55.4590   7.6100 14.48917860457522
UNKNOWN                 
1 85415U          22196.31595537 -.00000003  00000+0  00000+0 0  9993
2 85415  70.1247  76.7799 0016951 257.6053 272.3612  6.42318967    11
UNKNOWN                 
1 85416U          22196.31309310 -.00000003  00000+0  00000+0 0  9996
2 85416  70.1286  76.7757 0020803 272.6022 251.0628  6.42729319    11
UNKNOWN                 
1 85429U          22184.85625000 -.00000265  00000+0  00000+0 0  9993
2 85429  39.1467 321.9180 8403344 344.7734 189.2969  1.02426703   405
UNKNOWN                 
1 85433U          22197.40488051 -.00000003  00000+0  00000+0 0  9996
2 85433  70.1349  76.3862 0023663 214.1164 317.0969  6.40910751    20
UNKNOWN                 
1 85434U          22197.17616867 -.00000003  00000+0  00000+0 0  9999
2 85434  70.1177  76.2975 0021008 341.5837  18.4062  6.45051461    11
UNKNOWN                 
1 87014U          22208.15934140  .00000843  00000+0  15326-2 0  9994
2 87014 100.5226  93.4857 0056785 328.1987 185.3528 13.43688416424650
UNKNOWN                 
1 87029U 99025    22206.38417891  .00000887  00000+0  60705-3 0  9997
2 87029  98.8952 265.0141 0084415  98.9735 262.0997 14.00508291419729
UNKNOWN                 
1 87042U 00055    22208.12152633  .00000403  00000+0  27993-3 0  9997
2 87042  98.8554 273.4199 0043548 320.5340  39.2658 14.03986251382979
UNKNOWN                 
1 87051U 76126    22207.54074044  .00000376  00000+0  16095-3 0  9993
2 87051  65.7309 295.9874 0763537 335.1121  21.4824 13.36665804422971
UNKNOWN                 
1 87054U 75052    22208.16929634  .00001431  00000+0  99393-3 0  9991
2 87054 100.0843 292.1502 0019160  56.6204 303.6787 14.00722879442906
UNKNOWN                 
1 87065U 99025    22207.47080075  .00000575  00000+0  74803-3 0  9996
2 87065  98.6891 220.7007 0336207 223.0856 134.3512 13.44459922350341
UNKNOWN                 
1 87071U 68097    22208.20482468  .00000695  00000+0  32751-3 0  9991
2 87071  61.2241 280.1531 0561873   7.0511 353.8001 13.66758758432707
UNKNOWN                 
1 87074U 77121    22208.20009859  .00000248  00000+0  33787-3 0  9995
2 87074  66.1438  11.7243 0156354 228.8554 129.8931 13.70299432433960
UNKNOWN                 
1 87079U          22208.00362452  .00055149  00000+0  25167-2 0  9993
2 87079  70.2863 217.5572 0011959 238.2631 121.7377 15.20261561469206
UNKNOWN                 
1 87091U          22207.99492717  .00065751  00000+0  17489-2 0  9990
2 87091  65.6884 101.4296 0061047  79.4030 281.3981 15.35938998472564
UNKNOWN                 
1 87113U 76126    22208.13317017  .00004072  00000+0  65690-3 0  9990
2 87113  65.6652  95.8164 0340581 136.4912  13.4523 14.40626814453648
UNKNOWN                 
1 87129U 76077    22207.92019378  .00000078  00000+0  90551-3 0  9993
2 87129 102.3234 266.6749 0033403 192.1106 167.9157 12.42123173393318
UNKNOWN                 
1 87159U          22208.46070813  .00000645  00000+0  79881-3 0  9993
2 87159  90.3074  27.4089 0115425 309.0846  50.0088 13.61498537388482
UNKNOWN                 
1 87163U 76126    22208.42373059  .00000972  00000+0  31614-3 0  9999
2 87163  65.6027   8.4606 0714075 244.0567 108.5250 13.51336956410029
UNKNOWN                 
1 87164U          22208.15212005  .00000939  00000+0  27938-3 0  9998
2 87164  65.2061 259.3567 0152616 216.9237 142.1274 14.41903141456909
UNKNOWN                 
1 87203U          22207.62584817  .00003957  00000+0  84981-3 0  9990
2 87203  98.8779 145.2070 0059065 143.1114 217.4168 14.58124072372408
UNKNOWN                 
1 87204U          22207.87721959  .00000698  00000+0  33586-3 0  9992
2 87204  98.6597  77.9300 0050838 324.6116  35.1692 14.21317332449583
UNKNOWN                 
1 87211U          22208.56949804  .00000739  00000+0  28242-3 0  9997
2 87211  99.0017 126.9225 0066366 187.5364 347.8271 14.32621462530321
UNKNOWN                 
1 87213U 99025    22208.33643035  .00010264  00000+0  10499-2 0  9994
2 87213  99.0416  49.5560 0052755  15.9938 344.2926 14.89741435378622
UNKNOWN                 
1 87214U 70025    22207.92382940  .00001343  00000+0  13270-2 0  9991
2 87214 100.3255  77.9667 0077214 176.3847 183.7875 13.79378201429778
UNKNOWN                 
1 87222U          22207.16140948  .00116908  00000+0  27388-2 0  9991
2 87222  98.9584 187.1839 0033613 149.9259 210.3922 15.41056605562722
UNKNOWN                 
1 87228U 99025    22207.60562035  .00003529  00000+0  11961-2 0  9990
2 87228  98.9299 339.5298 0047158 147.0249 213.3892 14.36765766427031
UNKNOWN                 
1 87235U          22205.65676073  .00002401  00000+0  88526-3 0  9994
2 87235  98.9647 354.4136 0150517 202.6980 156.7498 14.27416895408696
UNKNOWN                 
1 87237U 99025    22207.58109083  .00000069  00000+0  88972-4 0  9991
2 87237  99.4122 240.9710 0105839  11.8415 139.6176 13.90157654440052
UNKNOWN                 
1 87239U 81053    22208.44428347  .00001729  00000+0  70474-3 0  9999
2 87239  82.8840  24.9858 0028883 250.2109 109.5961 14.26734474450625
UNKNOWN                 
1 87245U 71015    22208.55415221  .00000739  00000+0  20311-3 0  9997
2 87245  65.6621  47.6318 0519259 355.0605  34.6728 13.94813638440912
UNKNOWN                 
1 87256U 99025    22205.45209611  .00000713  00000+0  45054-3 0  9993
2 87256  98.8468 273.2256 0042598 283.1152  76.5265 14.06871626409689
UNKNOWN                 
1 87271U 71015    22208.49087340  .00002602  00000+0  60388-3 0  9995
2 87271  65.7704 225.1685 0556215 337.2337  20.4902 13.90580556439035
UNKNOWN                 
1 87280U          22208.14989541  .00000146  00000+0  36052-3 0  9999
2 87280  64.6170  44.3956 0117609 200.5033 159.1264 13.47141945995694
UNKNOWN                 
1 87293U 71015    22208.14387937  .00001200  00000+0  30402-3 0  9993
2 87293  65.9101 117.4218 0527946 299.9146  55.0481 13.94253347440585
UNKNOWN                 
1 87300U 70025    22205.35338710  .00000795  00000+0  64419-3 0  9990
2 87300 100.0900  58.2269 0032796 338.0732  21.9020 13.93407279440462
UNKNOWN                 
1 87304U          22206.27092438  .00000617  00000+0  11148-3 0  9990
2 87304  74.0181 206.7471 0019441 133.0525 227.2277 14.68590746464597
UNKNOWN                 
1 87305U 93036    22207.64792279  .00003295  00000+0  59988-3 0  9993
2 87305  73.9963  84.1404 0035888 172.3438 187.8287 14.66091405292676
UNKNOWN                 
1 87320U 71015    22208.17542731  .00000803  00000+0  58788-3 0  9997
2 87320  66.5968 129.1082 0438397 116.9389 247.7159 13.62554580425135
UNKNOWN                 
1 87334U          22208.18387537  .00005095  00000+0  62786-2 0  9990
2 87334  89.9965 270.9183 0084602  66.6835 294.3199 13.63594890216539
UNKNOWN                 
1 87335U          22208.46607402  .00003112  00000+0  38387-2 0  9996
2 87335  89.9811 269.1428 0083037  41.1489 319.5890 13.63526217216633
UNKNOWN                 
1 87397U 94029    22208.40728812  .00011375  00000+0  17959-2 0  9993
2 87397  81.2445   5.4636 0010059  81.6544 278.5801 14.72271241375408
UNKNOWN                 
1 87405U 81053    22208.56309812  .00000533  00000+0  42033-3 0  9994
2 87405  82.7565 306.7600 0054097 264.9645  94.5342 13.89382545439407
UNKNOWN                 
1 87410U 76077    22208.32061843  .00001489  00000+0  13946-1 0  9993
2 87410 102.2590 148.6260 0195444 113.3359 248.8387 12.19921994386385
